GPS BIIR-2  (PRN 13)    
1 24876U 97035A   24251.04487660  .00000012  00000+0  00000+0 0  9991
2 24876  55.6936 123.9313 0083850  53.8496 307.0168  2.00561113198950
GPS BIIR-4  (PRN 20)    
1 26360U 00025A   24251.48160273 -.00000052  00000+0  00000+0 0  9995
2 26360  54.7336  45.5314 0038937 216.4080 186.7857  2.00573111178288
GPS BIIR-5  (PRN 22)    
1 26407U 00040A   24251.33880203  .00000045  00000+0  00000+0 0  9991
2 26407  55.0378 240.9143 0143260 295.5894 203.9841  2.00561452176950
GPS BIIR-8  (PRN 16)    
1 27663U 03005A   24251.58347236  .00000047  00000+0  00000+0 0  9993
2 27663  55.0757 240.7156 0137458  47.6141  47.8599  2.00570208158326
GPS BIIR-9  (PRN 21)    
1 27704U 03010A   24251.61194795 -.00000094  00000+0  00000+0 0  9992
2 27704  55.0807 350.4666 0254262 329.5135   2.4376  2.00566089157119
GPS BIIR-11 (PRN 19)    
1 28190U 04009A   24251.30515582 -.00000036  00000+0  00000+0 0  9994
2 28190  55.3829 301.7580 0098862 152.4230 256.9431  2.00556964149953
GPS BIIR-13 (PRN 02)    
1 28474U 04045A   24251.26288625 -.00000095  00000+0  00000+0 0  9994
2 28474  55.4102 350.9275 0163303 294.4305 130.7048  2.00562198145431
GPS BIIRM-1 (PRN 17)    
1 28874U 05038A   24251.24011299 -.00000032  00000+0  00000+0 0  9991
2 28874  55.4286 299.2247 0137548 284.9212  99.9022  2.00550041138844
GPS BIIRM-2 (PRN 31)    
1 29486U 06042A   24251.57946168  .00000023  00000+0  00000+0 0  9994
2 29486  54.6774 177.0241 0104791  40.4843 130.4569  2.00551078131406
GPS BIIRM-3 (PRN 12)    
1 29601U 06052A   24251.26316276  .00000044  00000+0  00000+0 0  9994
2 29601  55.1087 239.7117 0084409  83.5883 277.3644  2.00572300130417
GPS BIIRM-4 (PRN 15)    
1 32260U 07047A   24251.06946395  .00000004  00000+0  00000+0 0  9999
2 32260  53.6494 106.8566 0158530  77.2114 284.6472  2.00560162123812
GPS BIIRM-5 (PRN 29)    
1 32384U 07062A   24251.37442486 -.00000033  00000+0  00000+0 0  9992
2 32384  55.5696 300.0936 0028271 156.8046 193.5489  2.00552146122514
GPS BIIRM-6 (PRN 07)    
1 32711U 08012A   24250.98582234  .00000021  00000+0  00000+0 0  9990
2 32711  54.4510 175.7903 0189356 239.9152 118.2117  2.00570455120754
GPS BIIRM-8 (PRN 05)    
1 35752U 09043A   24251.24214056 -.00000041  00000+0  00000+0 0  9990
2 35752  55.7433  53.0239 0056771  75.1494 124.6807  2.00564689110368
GPS BIIF-1  (PRN 25)    
1 36585U 10022A   24251.50690501  .00000047  00000+0  00000+0 0  9991
2 36585  54.4219 234.6758 0115242  62.0056  86.9338  2.00555728104605
GPS BIIF-3  (PRN 24)    
1 38833U 12053A   24251.16716632  .00000018  00000+0  00000+0 0  9999
2 38833  53.5182 170.1208 0156644  57.1366 304.3869  2.00559946 86449
GPS BIIF-4  (PRN 27)    
1 39166U 13023A   24251.52806709 -.00000024  00000+0  00000+0 0  9990
2 39166  55.0414 295.2606 0124067  44.9753 316.0900  2.00562648 82897
GPS BIIF-5  (PRN 30)    
1 39533U 14008A   24251.02619688  .00000020  00000+0  00000+0 0  9990
2 39533  53.6003 175.7357 0073236 221.1942 138.2674  2.00573251 76682
GPS BIIF-6  (PRN 06)    
1 39741U 14026A   24251.30690429 -.00000094  00000+0  00000+0 0  9996
2 39741  56.7031 356.6886 0031701 313.7486  46.0174  2.00562559 75541
GPS BIIF-7  (PRN 09)    
1 40105U 14045A   24250.89937134  .00000009  00000+0  00000+0 0  9998
2 40105  54.9650 114.3424 0028677 115.1824 245.2083  2.00572028 73079
GPS BIIF-8  (PRN 03)    
1 40294U 14068A   24251.27368784 -.00000034  00000+0  00000+0 0  9993
2 40294  56.4925  56.0410 0055178  65.2031 295.3933  2.00565232 72212
GPS BIIF-9  (PRN 26)    
1 40534U 15013A   24251.40333444  .00000044  00000+0  00000+0 0  9991
2 40534  53.3200 230.9898 0090454  30.3156 330.1854  2.00560717 68837
GPS BIIF-10 (PRN 08)    
1 40730U 15033A   24251.06661554 -.00000025  00000+0  00000+0 0  9999
2 40730  54.5244 293.7120 0095324  19.7420 340.6911  2.00562946 66998
GPS BIIF-11 (PRN 10)    
1 41019U 15062A   24251.12691975 -.00000035  00000+0  00000+0 0  9990
2 41019  56.4723  55.9006 0097904 224.5558 134.6771  2.00562745 64830
GPS BIIF-12 (PRN 32)    
1 41328U 16007A   24251.20803014  .00000009  00000+0  00000+0 0  9991
2 41328  55.1572 115.1909 0080281 238.5218 120.7822  2.00557946 62849
GPS BIII-1  (PRN 04)    
1 43873U 18109A   24251.14225322  .00000010  00000+0  00000+0 0  9998
2 43873  55.3268 117.7889 0030361 192.2975  11.2172  2.00559614 42074
GPS BIII-2  (PRN 18)    
1 44506U 19056A   24250.44265021 -.00000098  00000+0  00000+0 0  9993
2 44506  55.8358 356.8723 0046342 190.5678 133.2105  2.00572974 37050
GPS BIII-3  (PRN 23)    
1 45854U 20041A   24251.08586500 -.00000039  00000+0  00000+0 0  9990
2 45854  56.1934  54.2133 0046953 193.4555 169.7108  2.00572121 31043
GPS BIII-4  (PRN 14)    
1 46826U 20078A   24251.24143372  .00000043  00000+0  00000+0 0  9998
2 46826  54.1535 237.0742 0049276 198.9867 252.5219  2.00560550 28517
GPS BIII-5  (PRN 11)    
1 48859U 21054A   24251.36581935 -.00000095  00000+0  00000+0 0  9993
2 48859  55.3625 358.4497 0018014 220.0937 143.9996  2.00553450 23762
GPS BIII-6  (PRN 28)    
1 55268U 23009A   24251.59649917  .00000021  00000+0  00000+0 0  9995
2 55268  55.0856 173.9381 0001528  65.8222 149.4240  2.00558960 12259
